1 45083U 20006AR  23219.00535268  .00000168  00000-0  30191-4 0  9997
2 45083  53.0524 211.9615 0001201  84.9419 275.1707 15.06393338194267
1 45083U 20006AR  23220.33228505  .00002686  00000-0  19910-3 0  9990
2 45083  53.0530 206.0058 0001248  90.8766 269.2366 15.06407702194460
1 45083U 20006AR  23220.66402274  .00000781  00000-0  71316-4 0  9996
2 45083  53.0536 204.5161 0001320  89.9615 270.1525 15.06399940194515
1 45083U 20006AR  23220.99576367  .00001313  00000-0  10702-3 0  9990
2 45083  53.0535 203.0274 0001335  93.1643 266.9499 15.06392197194562
1 45083U 20006AR  23222.32268991  .00004626  00000-0  32916-3 0  9991
2 45083  53.0538 197.0709 0001381  94.4910 265.6236 15.06411936194762
1 45083U 20006AR  23222.65442841  .00000362  00000-0  43200-4 0  9997
2 45083  53.0524 195.5804 0001123  94.1786 265.9332 15.06398257194814
1 45083U 20006AR  23223.31790706 -.00001463  00000-0 -79382-4 0  9992
2 45083  53.0526 192.6015 0001389  93.6220 266.4928 15.06386710194918
1 45083U 20006AR  23223.64964008 -.00000218  00000-0  42783-5 0  9998
2 45083  53.0534 191.1136 0001329  94.5634 265.5506 15.06396128194969
1 45083U 20006AR  23224.04771208  .00002121  00000-0  16122-3 0  9991
2 45083  53.0537 189.3243 0001421  99.6224 260.4926 15.06402302195024
1 45083U 20006AR  23224.91023447  .00002038  00000-0  15569-3 0  9993
2 45083  53.0544 185.4530 0001129 103.1198 256.9917 15.06386935195151
1 45083U 20006AR  23225.24196676  .00001598  00000-0  12616-3 0  9995
2 45083  53.0523 183.9648 0001270  97.5776 262.5357 15.06394465195200
1 45083U 20006AR  23226.10446525  .00004420  00000-0  31532-3 0  9997
2 45083  53.0531 180.0919 0001198  98.8317 261.2808 15.06412753195334
1 45083U 20006AR  23227.09967438 -.00001672  00000-0 -93441-4 0  9993
2 45083  53.0506 175.6222 0001035  77.0419 283.0686 15.06392283195482
1 45083U 20006AR  23228.09487653  .00007614  00000-0  52940-3 0  9998
2 45083  53.0534 171.1577 0001195  92.4738 267.6388 15.06408113195633
1 45083U 20006AR  23229.09008395  .00008994  00000-0  62183-3 0  9993
2 45083  53.0524 166.6895 0001871  90.8591 269.2612 15.06405474195785
1 45083U 20006AR  23230.08527236  .00022772  00000-0  15409-2 0  9992
2 45083  53.0536 162.2227 0001462  91.2364 268.8792 15.06443205195933
1 45083U 20006AR  23230.81509238 -.00000090  00000-0  12862-4 0  9997
2 45083  53.0542 158.9466 0001939  83.8825 276.2385 15.06402054196046
1 45083U 20006AR  23231.14683578  .00022660  00000-0  15363-2 0  9997
2 45083  53.0538 157.4583 0001574  70.9298 289.1861 15.06375110196090
1 45083U 20006AR  23232.20838444  .00020875  00000-0  14154-2 0  9992
2 45083  53.0540 152.6919 0001541  74.2235 285.8924 15.06419976196255
1 45083U 20006AR  23232.80551125  .00009052  00000-0  62590-3 0  9998
2 45083  53.0516 150.0102 0001547  95.3998 264.7168 15.06394756196344
1 45083U 20006AR  23234.19878019  .00020876  00000-0  14145-2 0  9995
2 45083  53.0525 143.7573 0001421  91.9431 268.1720 15.06444794196553
1 45083U 20006AR  23235.06129987  .00005717  00000-0  40239-3 0  9996
2 45083  53.0516 139.8846 0001222 120.6579 239.4531 15.06397752196680
1 45083U 20006AR  23235.12765160  .00004257  00000-0  30462-3 0  9997
2 45083  53.0522 139.5873 0001454  78.4166 281.6986 15.06389161196692
1 45083U 20006AR  23236.12285703  .00017439  00000-0  11863-2 0  9997
2 45083  53.0520 135.1201 0001543  70.8943 289.2213 15.06413228196504
1 45083U 20006AR  23237.11806616  .00013090  00000-0  89591-3 0  9992
2 45083  53.0527 130.6524 0001447  82.1681 277.9472 15.06404769196654
1 45083U 20006AR  23237.11806616  .00013090  00000-0  89591-3 0  9992
2 45083  53.0527 130.6524 0001447  82.1681 277.9472 15.06404769196991
1 45083U 20006AR  23237.84787423  .00016406  00000-0  11170-2 0  9997
2 45083  53.0544 127.3755 0001340  77.1641 282.9497 15.06424648196767
1 45083U 20006AR  23238.04690939  .00017365  00000-0  11807-2 0  9997
2 45083  53.0545 126.4820 0001540  94.1396 265.9769 15.06434261196797
1 45083U 20006AR  23238.71038044  .00005494  00000-0  38732-3 0  9991
2 45083  53.0546 123.5023 0001454  93.8279 266.2876 15.06409963197235
1 45083U 20006AR  23238.84307701 -.00001734  00000-0 -97542-4 0  9994
2 45083  53.0542 122.9072 0001382  80.6844 279.4301 15.06393789196911
1 45083U 20006AR  23239.04211896 -.00000829  00000-0 -36754-4 0  9998
2 45083  53.0541 122.0102 0001362  92.2371 267.8774 15.06393404196949
1 45083U 20006AR  23239.04211896 -.00000829  00000-0 -36754-4 0  9998
2 45083  53.0541 122.0102 0001362  92.2371 267.8774 15.06393404197287
1 45083U 20006AR  23239.83828230  .00008839  00000-0  61143-3 0  9997
2 45083  53.0538 118.4374 0001407  84.6574 275.4575 15.06404847197067
1 45083U 20006AR  23240.10366693  .00012595  00000-0  86252-3 0  9991
2 45083  53.0538 117.2485 0001384  79.5437 280.5707 15.06416074197443
1 45083U 20006AR  23240.89983724  .00002978  00000-0  21874-3 0  9990
2 45083  53.0531 113.6739 0001392  89.8250 270.2898 15.06394913197224
1 45083U 20006AR  23241.03253237  .00002903  00000-0  21371-3 0  9996
2 45083  53.0537 113.0789 0001494  83.4071 276.7088 15.06395737197589
1 45083U 20006AR  23241.82869101  .00012287  00000-0  84202-3 0  9994
2 45083  53.0525 109.5055 0001229  95.7244 264.3885 15.06412752197367
1 45083U 20006AR  23242.02772870  .00013049  00000-0  89287-3 0  9998
2 45083  53.0526 108.6113 0001245  96.5092 263.6039 15.06418834197732
1 45083U 20006AR  23242.89024482 -.00004373  00000-0 -27501-3 0  9995
2 45083  53.0525 104.7398 0000724  61.3193 298.7869 15.06382297197526
1 45083U 20006AR  23243.02293881  .00001906  00000-0  14687-3 0  9990
2 45083  53.0529 104.1431 0001559  83.0091 277.1075 15.06390103197544
1 45083U 20006AR  23243.02293881  .00001906  00000-0  14687-3 0  9990
2 45083  53.0529 104.1431 0001559  83.0091 277.1075 15.06390103197881
1 45083U 20006AR  23244.01818382  .00044221  00000-0  29666-2 0  9998
2 45083  53.0406  99.6818 0008369  73.0156 287.1749 15.06406829198039
1 45083U 20006AR  23244.58334491  .00031274  00000-0  21102-2 0  9995
2 45083  53.0531  97.1374 0001358  98.2045  88.7281 15.06380993  5783
1 45083U 20006AR  23244.58334491  .00031274  00000-0  21102-2 0  9995
2 45083  53.0531  97.1374 0001358  98.2045  88.7281 15.06380993198113
1 45083U 20006AR  23244.88064950 -.00024664  00000-0 -16422-2 0  9994
2 45083  53.0479  95.8044 0002690  85.6233 274.5063 15.06406156197822
1 45083U 20006AR  23245.27872957  .00008591  00000-0  59474-3 0  9996
2 45083  53.0498  94.0175 0002015  86.3204 273.8015 15.06410793197883
1 45083U 20006AR  23245.27872957  .00008591  00000-0  59474-3 0  9996
2 45083  53.0498  94.0175 0002015  86.3204 273.8015 15.06410793198222
1 45083U 20006AR  23245.87583990  .00025383  00000-0  17149-2 0  9998
2 45083  53.0530  91.3351 0001210  92.1225 267.9902 15.06441130197978
1 45083U 20006AR  23246.00853074  .00016403  00000-0  11165-2 0  9992
2 45083  53.0530  90.7393 0001221  93.0217 267.0912 15.06435044198330
1 45083U 20006AR  23246.27391867  .00003602  00000-0  26046-3 0  9990
2 45083  53.0531  89.5479 0001098  92.5542 267.5573 15.06416765198033
1 45083U 20006AR  23246.27391867  .00003602  00000-0  26046-3 0  9990
2 45083  53.0531  89.5479 0001098  92.5542 267.5573 15.06416765198370
1 45083U 20006AR  23247.00374767  .00002498  00000-0  18659-3 0  9995
2 45083  53.0528  86.2714 0001426  86.5043 273.6109 15.06384999198484
1 45083U 20006AR  23247.53453120  .00012119  00000-0  83143-3 0  9995
2 45083  53.0530  83.8884 0001482  85.0453 275.0705 15.06384871198228
1 45083U 20006AR  23248.52973783  .00007300  00000-0  50850-3 0  9992
2 45083  53.0531  79.4209 0001517  83.8393 276.2768 15.06397095198717
1 45083U 20006AR  23249.52493320  .00010841  00000-0  74518-3 0  9998
2 45083  53.0538  74.9534 0001551  83.4917 276.6249 15.06419103198523
1 45083U 20006AR  23249.65762418  .00012110  00000-0  82994-3 0  9997
2 45083  53.0538  74.3581 0001553  82.5058 277.6107 15.06424338198886
1 45083U 20006AR  23249.92300507  .00014912  00000-0  10169-2 0  9990
2 45083  53.0541  73.1664 0001552  85.1229 274.9938 15.06435673198580
1 45083U 20006AR  23250.52012862  .00000319  00000-0  40321-4 0  9993
2 45083  53.0537  70.4856 0001470  97.4951 262.6205 15.06406594198676
1 45083U 20006AR  23250.78551768  .00005318  00000-0  37560-3 0  9998
2 45083  53.0538  69.2943 0001458  96.7900 263.3255 15.06405306198710
1 45083U 20006AR  23250.78551768  .00005318  00000-0  37560-3 0  9998
2 45083  53.0538  69.2943 0001458  96.7900 263.3255 15.06405306199058
1 45083U 20006AR  23251.18360063  .00010707  00000-0  73652-3 0  9999
2 45083  53.0533  67.5067 0001299  98.5724 261.5413 15.06402488198770
1 45083U 20006AR  23251.78071842  .00010813  00000-0  74343-3 0  9995
2 45083  53.0539  64.8266 0001337  99.2214 260.8926 15.06413729199202
1 45083U 20006AR  23251.84706444  .00012061  00000-0  82680-3 0  9995
2 45083  53.0540  64.5287 0001342  98.6283 261.4858 15.06416773198874
1 45083U 20006AR  23252.44419111  .00003329  00000-0  24226-3 0  9993
2 45083  53.0544  61.8491 0002111  89.3257 270.7974 15.06402431199305
1 45083U 20006AR  23252.51053739  .00005465  00000-0  38543-3 0  9991
2 45083  53.0543  61.5518 0002138  89.1024 271.0210 15.06406619198971
1 45083U 20006AR  23252.77592860  .00001067  00000-0  90552-4 0  9995
2 45083  53.0548  60.3594 0001374  93.1857 266.9289 15.06393136199358
1 45083U 20006AR  23253.50574693  .00016696  00000-0  11369-2 0  9992
2 45083  53.0544  57.0829 0001356  86.5233 273.5912 15.06405868199120
1 45083U 20006AR  23253.77113149  .00017220  00000-0  11716-2 0  9996
2 45083  53.0544  55.8916 0001321  86.3240 273.7901 15.06415665199509
1 45083U 20006AR  23254.16921113 -.00002910  00000-0 -17661-3 0  9996
2 45083  53.0544  54.1044 0000742 117.6116 242.4949 15.06393650199222
1 45083U 20006AR  23254.16921113 -.00002910  00000-0 -17661-3 0  9996
2 45083  53.0544  54.1044 0000742 117.6116 242.4949 15.06393650199569
1 45083U 20006AR  23254.96537792  .00015636  00000-0  10660-2 0  9998
2 45083  53.0538  50.5293 0001205  95.8370 264.2757 15.06408230199685
